YOTSUBA-KULOVER         
1 65941U 98067XN  25308.31749561  .00050408  00000+0  77981-3 0  9990
2 65941  51.6323 332.2216 0002626   3.8293 356.2717 15.53557594  3875
BOTAN                   
1 65942U 98067XP  25308.30992354  .00070090  00000+0  10417-2 0  9999
2 65942  51.6322 332.1719 0004782  18.8156 341.3011 15.54512341  3875
E-KAGAKU-1              
1 65943U 98067XQ  25308.31705656  .00050443  00000+0  78006-3 0  9997
2 65943  51.6327 332.2193 0004490   7.8441 352.2619 15.53561869  3872
2025-226D               
1 65944U 25226D   25308.56229115  .01101371  00000+0  22614-1 0  9993
2 65944  97.6572  23.2310 0020104 274.3436  85.5513 15.43268434  3711
SHIYAN-31               
1 65945U 25227A   25308.57622381  .00009670  00000+0  44211-3 0  9995
2 65945  80.0041  72.6084 0011482 195.1090 164.9796 15.20401215  3378
CZ-2D R/B               
1 65946U 25227B   25308.60552104  .00010315  00000+0  38013-3 0  9996
2 65946  80.1554  72.8785 0021344 321.9104  38.0617 15.27496285  3395
KUIPER-00101            
1 65947U 25228A   25308.56896251  .00025999  00000+0  76511-3 0  9996
2 65947  51.8799 204.4664 0005552 211.4034 148.6621 15.34886717  4552
KUIPER-00113            
1 65948U 25228B   25308.56537654  .00028539  00000+0  83150-3 0  9996
2 65948  51.8807 204.4449 0006166 206.8096 153.2572 15.35146640  4554
KUIPER-00117            
1 65949U 25228C   25308.56597690  .00027860  00000+0  81330-3 0  9997
2 65949  51.8806 204.4487 0005907 207.1867 152.8810 15.35100441  4557
KUIPER-00121            
1 65950U 25228D   25308.57437644  .00025225  00000+0  75145-3 0  9992
2 65950  51.8811 204.5060 0005735 225.5212 134.5305 15.34517938  4558
KUIPER-00122            
1 65951U 25228E   25308.58336806 -.01298559  00000+0 -47445-1 0  9997
2 65951  51.8824 204.5646 0007412 234.3462 129.7991 15.30456656  3182
KUIPER-00123            
1 65952U 25228F   25308.58336806  .00078560  00000+0  27459-2 0  9997
2 65952  51.8822 204.5376 0005214 237.6002 123.4146 15.28841292  1480
KUIPER-00124            
1 65953U 25228G   25308.57679527  .00024696  00000+0  74051-3 0  9999
2 65953  51.8807 204.5211 0005365 236.5391 123.5082 15.34325009  4559
KUIPER-00125            
1 65954U 25228H   25308.57094896  .00024998  00000+0  73928-3 0  9997
2 65954  51.8799 204.4770 0005578 217.3868 142.6730 15.34752986  4551
KUIPER-00126            
1 65955U 25228J   25308.57513043  .00035446  00000+0  10513-2 0  9998
2 65955  51.8804 204.5080 0006023 230.9416 129.1034 15.34475247  4559
KUIPER-00127            
1 65956U 25228K   25308.56646041  .00015018  00000+0  44490-3 0  9998
2 65956  51.8803 204.4521 0005843 208.5924 151.4743 15.35054615  4550
KUIPER-00128            
1 65957U 25228L   25308.56953315  .00018993  00000+0  56320-3 0  9994
2 65957  51.8809 204.4747 0005607 212.3488 147.7154 15.34843664  4556
KUIPER-00129            
1 65958U 25228M   25308.56908240  .00018129  00000+0  53793-3 0  9994
2 65958  51.8805 204.4713 0005733 207.3156 152.7529 15.34856279  4550
KUIPER-00130            
1 65959U 25228N   25308.57227344  .00025040  00000+0  74237-3 0  9991
2 65959  51.8801 204.4854 0005348 223.4395 136.6170 15.34675390  4555
KUIPER-00134            
1 65960U 25228P   25308.57372131  .00027320  00000+0  81133-3 0  9994
2 65960  51.8797 204.4941 0005312 227.1346 132.9194 15.34572809  4552
KUIPER-00135            
1 65961U 25228Q   25308.57337563  .00026144  00000+0  77737-3 0  9993
2 65961  51.8811 204.5003 0005340 213.4294 146.6355 15.34558729  4557
KUIPER-00136            
1 65962U 25228R   25308.56751969  .00042915  00000+0  12507-2 0  9990
2 65962  51.8808 204.4618 0005571 207.6123 152.4567 15.34941814  4558
KUIPER-00137            
1 65963U 25228S   25308.57269279  .00026481  00000+0  78668-3 0  9991
2 65963  51.8810 204.4960 0004843 221.4783 138.5836 15.34582084  4553
KUIPER-00138            
1 65964U 25228T   25308.57518817  .00023535  00000+0  70633-3 0  9998
2 65964  51.8801 204.5053 0006393 232.3972 127.6433 15.34319353  4550
KUIPER-00140            
1 65965U 25228U   25308.57594011  .00024565  00000+0  73469-3 0  9993
2 65965  51.8807 204.5139 0005633 235.1468 124.8989 15.34407635  4555
KUIPER-00141            
1 65966U 25228V   25308.57006232  .00020491  00000+0  60738-3 0  9996
2 65966  51.8802 204.4717 0005658 214.8876 145.1740 15.34804910  4554
KUIPER-00146            
1 65967U 25228W   25308.57053941  .00027529  00000+0  81204-3 0  9996
2 65967  51.8809 204.4823 0005803 215.6556 144.4042 15.34779120  4557
KUIPER-00149            
1 65968U 25228X   25308.56796751  .00023981  00000+0  70515-3 0  9990
2 65968  51.8804 204.4593 0005824 212.2579 147.8052 15.34957038  4552
KUIPER-00154            
1 65969U 25228Y   25308.56700402  .00037122  00000+0  10813-2 0  9995
2 65969  51.8799 204.4544 0005488 207.8123 152.2570 15.35026210  4558
KUIPER-00157            
1 65970U 25228Z   25308.57376344  .00028609  00000+0  84878-3 0  9995
2 65970  51.8810 204.5024 0005982 226.5429 133.5059 15.34575606  4555
STRIX-5                 
1 65971U 25229A   25308.66488834  .00004851  00000+0  37493-3 0  9999
2 65971  41.9272  90.1583 0038998  21.7890 338.4584 15.01738830  3188
ELECTRON R/B            
1 65972U 25229B   25307.80026377  .00004683  00000+0  36247-3 0  9994
2 65972  41.9268  94.9326 0039114  16.0549 344.1507 15.01728763  3037
ELECTRON KICK STAGE R/B 
1 65973U 25229C   25308.12131051  .00006829  00000+0  50919-3 0  9993
2 65973  41.9821  93.1233 0040204  18.3017 341.9246 15.02626717  3074
SDA_1664                
1 65974U 25230A   25308.58780058  .00000271  00000+0  23011-3 0  9991
2 65974  81.2993  59.9919 0003405  62.7117 297.4386 13.84696550  2720
SDA_1665                
1 65975U 25230B   25308.57749972  .00000309  00000+0  26134-3 0  9992
2 65975  81.3031  59.9892 0005013 104.8779 255.2934 13.85426635  2721
SDA_1666                
1 65976U 25230C   25308.58880837  .00000242  00000+0  20505-3 0  9992
2 65976  81.3002  59.9954 0003054  59.9391 300.2068 13.84625218  2728
SDA_1667                
1 65977U 25230D   25308.58526341  .00000289  00000+0  24550-3 0  9995
2 65977  81.2998  59.9896 0003931  73.2519 286.9069 13.84876026  2728
SDA_1668                
1 65978U 25230E   25308.57691483  .00000328  00000+0  27723-3 0  9994
2 65978  81.3014  59.9804 0004974 107.6976 252.4724 13.85467993  2721
SDA_1669                
1 65979U 25230F   25308.58019981  .00000313  00000+0  26500-3 0  9999
2 65979  81.3016  59.9853 0005083  95.1479 265.0259 13.85234649  2722
SDA_1670                
1 65980U 25230G   25308.58617594  .00000311  00000+0  26581-3 0  9992
2 65980  81.2994  59.9898 0003648  69.9982 290.1568 13.84811489  2724
SDA_1671                
1 65981U 25230H   25308.57840505  .00000249  00000+0  20818-3 0  9999
2 65981  81.3021  59.9835 0005027 101.9157 258.2564 13.85361591  2728
SDA_1672                
1 65982U 25230J   25308.58415777  .00000296  00000+0  25166-3 0  9993
2 65982  81.3028  59.9939 0004307  75.3681 284.7954 13.84954648  2724
SDA_1673                
1 65983U 25230K   25308.57569898  .00000324  00000+0  27361-3 0  9998
2 65983  81.3026  59.9842 0005107 112.2080 247.9619 13.85554385  2723
SDA_1674                
1 65984U 25230L   25308.57792734  .00000308  00000+0  26031-3 0  9991
2 65984  81.3018  59.9822 0004973 103.7774 256.3937 13.85396260  2721
SDA_1675                
1 65985U 25230M   25308.58740051  .00000298  00000+0  25476-3 0  9998
2 65985  81.2994  59.9914 0003477  64.6572 295.4945 13.84724881  2721
SDA_1676                
1 65986U 25230N   25308.58952544  .00000209  00000+0  17585-3 0  9995
2 65986  81.3025  60.0000 0002793  56.5191 303.6233 13.84574537  2727
SDA_1677                
1 65987U 25230P   25308.58831160  .00000209  00000+0  17518-3 0  9992
2 65987  81.2998  59.9939 0003144  61.2349 298.9123 13.84660309  2720
SDA_1678                
1 65988U 25230Q   25308.57631879  .00000319  00000+0  26903-3 0  9997
2 65988  81.3030  59.9867 0005021 110.0387 250.1311 13.85509729  2728
SDA_1679                
1 65989U 25230R   25308.57916163  .00000211  00000+0  17548-3 0  9996
2 65989  81.3027  59.9908 0005164  98.9207 261.2535 13.85309055  2725
SDA_1680                
1 65990U 25230S   25308.58087783  .00000315  00000+0  26690-3 0  9999
2 65990  81.3019  59.9876 0005021  92.1577 268.0155 13.85186985  2728
SDA_1681                
1 65991U 25230T   25308.57974749  .00000288  00000+0  24320-3 0  9993
2 65991  81.3017  59.9845 0005114  96.7111 263.4628 13.85266833  2725
SDA_1682                
1 65992U 25230U   25308.58588866  .00000204  00000+0  17055-3 0  9991
2 65992  81.3044  59.9998 0003724  71.0562 289.0999 13.84831924  2729
SDA_1683                
1 65993U 25230V   25308.58475426  .00000315  00000+0  26869-3 0  9995
2 65993  81.3035  59.9960 0004060  73.9058 286.2546 13.84912095  2720
SDA_1684                
1 65994U 25230W   25308.58679782  .00000235  00000+0  19796-3 0  9999
2 65994  81.3018  59.9956 0003830  61.0367 299.1174 13.84768066  2729
HULIANWANG DIGUI 12A    
1 65995U 25231A   25308.46093460  .00000028  00000+0  11310-3 0  9995
2 65995  50.0003 278.7313 0006470 320.9202  39.1235 14.03848597  2734
HULIANWANG DIGUI 12B    
1 65996U 25231B   25308.53488254  .00000026  00000+0  11202-3 0  9991
2 65996  49.9992 278.4541 0009041 326.3791  33.6539 14.03879564  2744
HULIANWANG DIGUI 12C    
1 65997U 25231C   25308.53094588  .00000023  00000+0  10996-3 0  9991
2 65997  49.9969 278.4277 0007592 325.8828  34.1587 14.03883137  2749
HULIANWANG DIGUI 12D    
1 65998U 25231D   25308.59685352  .00000025  00000+0  10986-3 0  9994
2 65998  49.9996 278.1159 0006728 332.2378  27.8167 14.04585080  2759
HULIANWANG DIGUI 12E    
1 65999U 25231E   25308.52916734  .00000013  00000+0  10368-3 0  9990
2 65999  50.0015 278.4290 0008306 341.5591  18.5011 14.03844269  2748
